0 SL-8 DEB
1 21400U 91009BP  13281.57935311  .00000025  00000-0  29652-3 0  8077
2 21400 073.9689 230.0479 0184771 048.7937 063.2382 12.36510798946759
0 SL-8 DEB
1 21400U 91009BP  13283.75646181  .00000001  00000-0  11910-3 0  8086
2 21400 073.9691 227.2140 0184955 045.6262 034.4940 12.36511123947020
0 SL-8 DEB
1 21400U 91009BP  13285.84525896  .00000018  00000-0  24320-3 0  8095
2 21400 073.9692 224.4960 0185043 042.5858 332.6420 12.36510936947281
0 SL-8 DEB
1 21400U 91009BP  13288.20297579  .00000029  00000-0  32155-3 0  8101
2 21400 073.9698 221.4286 0185060 039.1482 027.8732 12.36511029947574
0 SL-8 DEB
1 21400U 91009BP  13290.24829708  .00000022  00000-0  27374-3 0  8114
2 21400 073.9694 218.7667 0185244 036.1848 132.4752 12.36511185947825
0 SL-8 DEB
1 21400U 91009BP  13292.50122810  .00000040  00000-0  40629-3 0  8124
2 21400 073.9696 215.8360 0185227 032.8884 081.2710 12.36511282948104
0 SL-8 DEB
1 21400U 91009BP  13294.52247928  .00000008  00000-0  16997-3 0  8132
2 21400 073.9694 213.2059 0185327 029.9574 078.7300 12.36511695948354
